{
  "type": "FeatureCollection",
  "features": [
    {
      "type": "Feature",
      "properties": {},
      "geometry": {
        "type": "Polygon",
        "coordinates": [
          [
            [-141.00, 60.00],
            [-141.00, 69.65],
            [-136.50, 69.00],
            [-132.00, 69.50],
            [-124.00, 70.00],
            [-115.00, 73.50],
            [-105.00, 73.00],
            [-95.00, 74.00],
            [-85.00, 73.00],
            [-78.00, 72.50],
            [-70.00, 68.00],
            [-65.00, 63.00],
            [-64.00, 60.00],
            [-58.00, 58.00],
            [-64.00, 55.00],
            [-66.50, 52.00],
            [-59.80, 47.00],
            [-52.62, 47.57],
            [-53.00, 46.50],
            [-60.00, 46.00],
            [-64.40, 43.50],
            [-66.00, 44.50],
            [-67.80, 47.00],
            [-71.00, 45.00],
            [-74.70, 45.00],
            [-76.80, 43.63],
            [-79.00, 43.00],
            [-82.50, 41.67],
            [-83.15, 42.08],
            [-84.00, 46.00],
            [-89.50, 48.00],
            [-95.15, 49.00],
            [-110.00, 49.00],
            [-114.07, 49.00],
            [-123.32, 49.00],
            [-124.00, 49.50],
            [-124.60, 50.50],
            [-127.00, 50.70],
            [-128.00, 52.00],
            [-130.00, 54.00],
            [-132.00, 56.00],
            [-134.00, 57.00],
            [-136.00, 59.00],
            [-139.06, 60.00],
            [-141.00, 60.00]
          ]
        ]
      }
    }
  ]
}
